STARLINK-36900          
1 67973U 26038N   26067.41668981 -.01578475  71184-3 -44677-2 0  9998
2 67973  97.2713  77.6187 0001122  99.5094 262.7254 15.93500779  2995
STARLINK-36901          
1 67974U 26038P   26067.41668981 -.01600331  72917-3 -45642-2 0  9994
2 67974  97.2714  77.6169 0001133  91.3388 266.7145 15.93357804  2997
STARLINK-36883          
1 67975U 26038Q   26067.41668981 -.01566132  70580-3 -42982-2 0  9993
2 67975  97.2703  77.6256 0001155  86.0409 292.3307 15.94087700  2993
STARLINK-36880          
1 67976U 26038R   26067.41668981 -.01579649  71392-3 -44364-2 0  9999
2 67976  97.2708  77.6205 0001130  93.7442 272.5533 15.93650066  2999
STARLINK-36904          
1 67977U 26038S   26067.41668981 -.01577721  71447-3 -43628-2 0  9992
2 67977  97.2703  77.6233 0001158  89.8999 284.4238 15.93945334  2998
STARLINK-36364          
1 67978U 26038T   26067.41668981 -.01565100  70753-3 -42158-2 0  9997
2 67978  97.2695  77.6293 0001099  89.4982 298.3908 15.94442411  2994
STARLINK-36359          
1 67979U 26038U   26067.41668981 -.01581616  71648-3 -44133-2 0  9997
2 67979  97.2706  77.6214 0001080  96.8583 272.8256 15.93773863  2990
STARLINK-36882          
1 67980U 26038V   26067.41668981 -.01581848  72043-3 -42978-2 0  9991
2 67980  97.2697  77.6274 0001170  90.4103 292.9629 15.94281027  2999
STARLINK-36874          
1 67981U 26038W   26067.41668981 -.01580214  72122-3 -42281-2 0  9993
2 67981  97.2695  77.6307 0001147  85.3043 305.8832 15.94571090  2997
STARLINK-36879          
1 67982U 26038X   26067.41668981 -.01571961  71532-3 -41737-2 0  9992
2 67982  97.2691  77.6323 0001063  94.6210 300.6155 15.94715875  2990
STARLINK-36867          
1 67983U 26038Y   26067.41668981 -.01560897  70823-3 -40785-2 0  9993
2 67983  97.2687  77.6361 0001255  78.9191 324.5521 15.95015781  2996
STARLINK-36266          
1 67984U 26038Z   26067.41668981 -.01564564  71031-3 -41176-2 0  9996
2 67984  97.2689  77.6346 0001145  89.5265 310.2378 15.94881257  2967
