CCSDS_OMM_VERS = 2.0
CREATION_DATE  = 
ORIGINATOR     = 

OBJECT_NAME    = STARLINK-36900
OBJECT_ID      = 2026-038N
CENTER_NAME    = EARTH
REF_FRAME      = TEME
TIME_SYSTEM    = UTC
MEAN_ELEMENT_THEORY = SGP/SGP4

EPOCH          = 2026-03-08T10:00:01.999584
MEAN_MOTION    = 15.93500779
ECCENTRICITY   = .0001122
INCLINATION    = 97.2713
RA_OF_ASC_NODE = 77.6187
ARG_OF_PERICENTER = 99.5094
MEAN_ANOMALY   = 262.7254

EPHEMERIS_TYPE = 0
CLASSIFICATION_TYPE = U
NORAD_CAT_ID   = 67973
ELEMENT_SET_NO = 999
REV_AT_EPOCH   = 299
BSTAR          = -.44677E-2
MEAN_MOTION_DOT = -.1578475E-1
MEAN_MOTION_DDOT = .71184E-3

CCSDS_OMM_VERS = 2.0
CREATION_DATE  = 
ORIGINATOR     = 

OBJECT_NAME    = STARLINK-36901
OBJECT_ID      = 2026-038P
CENTER_NAME    = EARTH
REF_FRAME      = TEME
TIME_SYSTEM    = UTC
MEAN_ELEMENT_THEORY = SGP/SGP4

EPOCH          = 2026-03-08T10:00:01.999584
MEAN_MOTION    = 15.93357804
ECCENTRICITY   = .0001133
INCLINATION    = 97.2714
RA_OF_ASC_NODE = 77.6169
ARG_OF_PERICENTER = 91.3388
MEAN_ANOMALY   = 266.7145

EPHEMERIS_TYPE = 0
CLASSIFICATION_TYPE = U
NORAD_CAT_ID   = 67974
ELEMENT_SET_NO = 999
REV_AT_EPOCH   = 299
BSTAR          = -.45642E-2
MEAN_MOTION_DOT = -.1600331E-1
MEAN_MOTION_DDOT = .72917E-3

CCSDS_OMM_VERS = 2.0
CREATION_DATE  = 
ORIGINATOR     = 

OBJECT_NAME    = STARLINK-36883
OBJECT_ID      = 2026-038Q
CENTER_NAME    = EARTH
REF_FRAME      = TEME
TIME_SYSTEM    = UTC
MEAN_ELEMENT_THEORY = SGP/SGP4

EPOCH          = 2026-03-08T10:00:01.999584
MEAN_MOTION    = 15.94087700
ECCENTRICITY   = .0001155
INCLINATION    = 97.2703
RA_OF_ASC_NODE = 77.6256
ARG_OF_PERICENTER = 86.0409
MEAN_ANOMALY   = 292.3307

EPHEMERIS_TYPE = 0
CLASSIFICATION_TYPE = U
NORAD_CAT_ID   = 67975
ELEMENT_SET_NO = 999
REV_AT_EPOCH   = 299
BSTAR          = -.42982E-2
MEAN_MOTION_DOT = -.1566132E-1
MEAN_MOTION_DDOT = .7058E-3

CCSDS_OMM_VERS = 2.0
CREATION_DATE  = 
ORIGINATOR     = 

OBJECT_NAME    = STARLINK-36880
OBJECT_ID      = 2026-038R
CENTER_NAME    = EARTH
REF_FRAME      = TEME
TIME_SYSTEM    = UTC
MEAN_ELEMENT_THEORY = SGP/SGP4

EPOCH          = 2026-03-08T10:00:01.999584
MEAN_MOTION    = 15.93650066
ECCENTRICITY   = .000113
INCLINATION    = 97.2708
RA_OF_ASC_NODE = 77.6205
ARG_OF_PERICENTER = 93.7442
MEAN_ANOMALY   = 272.5533

EPHEMERIS_TYPE = 0
CLASSIFICATION_TYPE = U
NORAD_CAT_ID   = 67976
ELEMENT_SET_NO = 999
REV_AT_EPOCH   = 299
BSTAR          = -.44364E-2
MEAN_MOTION_DOT = -.1579649E-1
MEAN_MOTION_DDOT = .71392E-3

CCSDS_OMM_VERS = 2.0
CREATION_DATE  = 
ORIGINATOR     = 

OBJECT_NAME    = STARLINK-36904
OBJECT_ID      = 2026-038S
CENTER_NAME    = EARTH
REF_FRAME      = TEME
TIME_SYSTEM    = UTC
MEAN_ELEMENT_THEORY = SGP/SGP4

EPOCH          = 2026-03-08T10:00:01.999584
MEAN_MOTION    = 15.93945334
ECCENTRICITY   = .0001158
INCLINATION    = 97.2703
RA_OF_ASC_NODE = 77.6233
ARG_OF_PERICENTER = 89.8999
MEAN_ANOMALY   = 284.4238

EPHEMERIS_TYPE = 0
CLASSIFICATION_TYPE = U
NORAD_CAT_ID   = 67977
ELEMENT_SET_NO = 999
REV_AT_EPOCH   = 299
BSTAR          = -.43628E-2
MEAN_MOTION_DOT = -.1577721E-1
MEAN_MOTION_DDOT = .71447E-3

CCSDS_OMM_VERS = 2.0
CREATION_DATE  = 
ORIGINATOR     = 

OBJECT_NAME    = STARLINK-36364
OBJECT_ID      = 2026-038T
CENTER_NAME    = EARTH
REF_FRAME      = TEME
TIME_SYSTEM    = UTC
MEAN_ELEMENT_THEORY = SGP/SGP4

EPOCH          = 2026-03-08T10:00:01.999584
MEAN_MOTION    = 15.94442411
ECCENTRICITY   = .0001099
INCLINATION    = 97.2695
RA_OF_ASC_NODE = 77.6293
ARG_OF_PERICENTER = 89.4982
MEAN_ANOMALY   = 298.3908

EPHEMERIS_TYPE = 0
CLASSIFICATION_TYPE = U
NORAD_CAT_ID   = 67978
ELEMENT_SET_NO = 999
REV_AT_EPOCH   = 299
BSTAR          = -.42158E-2
MEAN_MOTION_DOT = -.15651E-1
MEAN_MOTION_DDOT = .70753E-3

CCSDS_OMM_VERS = 2.0
CREATION_DATE  = 
ORIGINATOR     = 

OBJECT_NAME    = STARLINK-36359
OBJECT_ID      = 2026-038U
CENTER_NAME    = EARTH
REF_FRAME      = TEME
TIME_SYSTEM    = UTC
MEAN_ELEMENT_THEORY = SGP/SGP4

EPOCH          = 2026-03-08T10:00:01.999584
MEAN_MOTION    = 15.93773863
ECCENTRICITY   = .000108
INCLINATION    = 97.2706
RA_OF_ASC_NODE = 77.6214
ARG_OF_PERICENTER = 96.8583
MEAN_ANOMALY   = 272.8256

EPHEMERIS_TYPE = 0
CLASSIFICATION_TYPE = U
NORAD_CAT_ID   = 67979
ELEMENT_SET_NO = 999
REV_AT_EPOCH   = 299
BSTAR          = -.44133E-2
MEAN_MOTION_DOT = -.1581616E-1
MEAN_MOTION_DDOT = .71648E-3

CCSDS_OMM_VERS = 2.0
CREATION_DATE  = 
ORIGINATOR     = 

OBJECT_NAME    = STARLINK-36882
OBJECT_ID      = 2026-038V
CENTER_NAME    = EARTH
REF_FRAME      = TEME
TIME_SYSTEM    = UTC
MEAN_ELEMENT_THEORY = SGP/SGP4

EPOCH          = 2026-03-08T10:00:01.999584
MEAN_MOTION    = 15.94281027
ECCENTRICITY   = .000117
INCLINATION    = 97.2697
RA_OF_ASC_NODE = 77.6274
ARG_OF_PERICENTER = 90.4103
MEAN_ANOMALY   = 292.9629

EPHEMERIS_TYPE = 0
CLASSIFICATION_TYPE = U
NORAD_CAT_ID   = 67980
ELEMENT_SET_NO = 999
REV_AT_EPOCH   = 299
BSTAR          = -.42978E-2
MEAN_MOTION_DOT = -.1581848E-1
MEAN_MOTION_DDOT = .72043E-3

CCSDS_OMM_VERS = 2.0
CREATION_DATE  = 
ORIGINATOR     = 

OBJECT_NAME    = STARLINK-36874
OBJECT_ID      = 2026-038W
CENTER_NAME    = EARTH
REF_FRAME      = TEME
TIME_SYSTEM    = UTC
MEAN_ELEMENT_THEORY = SGP/SGP4

EPOCH          = 2026-03-08T10:00:01.999584
MEAN_MOTION    = 15.94571090
ECCENTRICITY   = .0001147
INCLINATION    = 97.2695
RA_OF_ASC_NODE = 77.6307
ARG_OF_PERICENTER = 85.3043
MEAN_ANOMALY   = 305.8832

EPHEMERIS_TYPE = 0
CLASSIFICATION_TYPE = U
NORAD_CAT_ID   = 67981
ELEMENT_SET_NO = 999
REV_AT_EPOCH   = 299
BSTAR          = -.42281E-2
MEAN_MOTION_DOT = -.1580214E-1
MEAN_MOTION_DDOT = .72122E-3

CCSDS_OMM_VERS = 2.0
CREATION_DATE  = 
ORIGINATOR     = 

OBJECT_NAME    = STARLINK-36879
OBJECT_ID      = 2026-038X
CENTER_NAME    = EARTH
REF_FRAME      = TEME
TIME_SYSTEM    = UTC
MEAN_ELEMENT_THEORY = SGP/SGP4

EPOCH          = 2026-03-08T10:00:01.999584
MEAN_MOTION    = 15.94715875
ECCENTRICITY   = .0001063
INCLINATION    = 97.2691
RA_OF_ASC_NODE = 77.6323
ARG_OF_PERICENTER = 94.6210
MEAN_ANOMALY   = 300.6155

EPHEMERIS_TYPE = 0
CLASSIFICATION_TYPE = U
NORAD_CAT_ID   = 67982
ELEMENT_SET_NO = 999
REV_AT_EPOCH   = 299
BSTAR          = -.41737E-2
MEAN_MOTION_DOT = -.1571961E-1
MEAN_MOTION_DDOT = .71532E-3

CCSDS_OMM_VERS = 2.0
CREATION_DATE  = 
ORIGINATOR     = 

OBJECT_NAME    = STARLINK-36867
OBJECT_ID      = 2026-038Y
CENTER_NAME    = EARTH
REF_FRAME      = TEME
TIME_SYSTEM    = UTC
MEAN_ELEMENT_THEORY = SGP/SGP4

EPOCH          = 2026-03-08T10:00:01.999584
MEAN_MOTION    = 15.95015781
ECCENTRICITY   = .0001255
INCLINATION    = 97.2687
RA_OF_ASC_NODE = 77.6361
ARG_OF_PERICENTER = 78.9191
MEAN_ANOMALY   = 324.5521

EPHEMERIS_TYPE = 0
CLASSIFICATION_TYPE = U
NORAD_CAT_ID   = 67983
ELEMENT_SET_NO = 999
REV_AT_EPOCH   = 299
BSTAR          = -.40785E-2
MEAN_MOTION_DOT = -.1560897E-1
MEAN_MOTION_DDOT = .70823E-3

CCSDS_OMM_VERS = 2.0
CREATION_DATE  = 
ORIGINATOR     = 

OBJECT_NAME    = STARLINK-36266
OBJECT_ID      = 2026-038Z
CENTER_NAME    = EARTH
REF_FRAME      = TEME
TIME_SYSTEM    = UTC
MEAN_ELEMENT_THEORY = SGP/SGP4

EPOCH          = 2026-03-08T10:00:01.999584
MEAN_MOTION    = 15.94881257
ECCENTRICITY   = .0001145
INCLINATION    = 97.2689
RA_OF_ASC_NODE = 77.6346
ARG_OF_PERICENTER = 89.5265
MEAN_ANOMALY   = 310.2378

EPHEMERIS_TYPE = 0
CLASSIFICATION_TYPE = U
NORAD_CAT_ID   = 67984
ELEMENT_SET_NO = 999
REV_AT_EPOCH   = 296
BSTAR          = -.41176E-2
MEAN_MOTION_DOT = -.1564564E-1
MEAN_MOTION_DDOT = .71031E-3

